STARLINK-31164          
1 58733U 24005F   26068.46504083  .00004947  00000+0  19397-3 0  9994
2 58733  43.0011 220.6476 0001690 274.9327  85.1331 15.26744385120407
PHISAT 2                
1 60470U 24149C   26068.78834181  .00008925  00000+0  31421-3 0  9996
2 60470  97.3806 148.6498 0001175 168.6230 191.5037 15.29548631 86792
